[{"OBJECT_NAME":"STARLINK-4622","OBJECT_ID":"2022-105A","EPOCH":"2026-03-09T15:28:45.630912","MEAN_MOTION":15.01261325,"ECCENTRICITY":9.71e-5,"INCLINATION":97.6028,"RA_OF_ASC_NODE":310.1571,"ARG_OF_PERICENTER":127.6572,"MEAN_ANOMALY":232.4741,"EPHEMERIS_TYPE":0,"CLASSIFICATION_TYPE":"U","NORAD_CAT_ID":53648,"ELEMENT_SET_NO":999,"REV_AT_EPOCH":19323,"BSTAR":-2.9421e-5,"MEAN_MOTION_DOT":-4.36e-6,"MEAN_MOTION_DDOT":0},{"OBJECT_NAME":"SL-16 DEB","OBJECT_ID":"1992-093LA","EPOCH":"2026-02-20T04:21:44.148672","MEAN_MOTION":14.94798833,"ECCENTRICITY":0.00217312,"INCLINATION":71.2188,"RA_OF_ASC_NODE":0.2564,"ARG_OF_PERICENTER":24.1632,"MEAN_ANOMALY":336.0549,"EPHEMERIS_TYPE":0,"CLASSIFICATION_TYPE":"U","NORAD_CAT_ID":39848,"ELEMENT_SET_NO":999,"REV_AT_EPOCH":60757,"BSTAR":0.0046757079,"MEAN_MOTION_DOT":0.00051467,"MEAN_MOTION_DDOT":0}]
